ONEWEB-0667             
1 55827U 23029AH  26157.57321008  .00000087  00000+0  18255-3 0  9998
2 55827  87.9194 276.5451 0001810  95.7680 264.3660 13.20772076159740
ONEWEB-0669             
1 55828U 23029AJ  26157.56815588  .00000073  00000+0  14705-3 0  9990
2 55828  87.9185 276.5582 0002372  91.3155 268.8250 13.20771523159749
ONEWEB-0670             
1 55829U 23029AK  26157.63192071 -.00000258  00000+0 -73023-3 0  9999
2 55829  87.8941 291.8464 0001768  85.3121 274.8211 13.14501748158041
ONEWEB-0671             
1 55830U 23029AL  26157.67658693  .00000181  00000+0  42023-3 0  9991
2 55830  87.9163 307.0708 0001748  92.5804 267.5529 13.19724459157510
ONEWEB-0672             
1 55831U 23029AM  26157.56310044  .00000090  00000+0  19036-3 0  9992
2 55831  87.9187 276.5523 0002172 102.0313 258.1063 13.20771860159742
ONEWEB-0673             
1 55832U 23029AN  26157.65370213  .00000058  00000+0  11334-3 0  9994
2 55832  87.9170 307.0660 0001741  92.4173 267.7159 13.19726169157519
ONEWEB-0674             
1 55833U 23029AP  26157.60020841  .00000272  00000+0  69811-3 0  9990
2 55833  87.8946 291.8295 0001856  85.9757 274.1585 13.14503372158022
ONEWEB-0675             
1 55834U 23029AQ  26157.44125190 -.00000131  00000+0 -36022-3 0  9990
2 55834  87.9162 307.1186 0001943 105.9682 254.1665 13.19724942157503
ONEWEB-0720             
1 55835U 23029AR  26157.66079798  .00000107  00000+0  23459-3 0  9998
2 55835  87.9159 307.0751 0001521  97.1762 262.9543 13.19724784157450
ONEWEB-0537             
1 56046U 23043A   26157.63102159  .00000007  00000+0 -16032-4 0  9994
2 56046  87.9099 230.8676 0002243 102.7923 257.3459 13.16593505157570
ONEWEB-0538             
1 56047U 23043B   26157.92867717 -.00000818  00000+0 -21743-2 0  9999
2 56047  87.9104 230.8111 0002045 106.1892 253.9465 13.16597862157620
ONEWEB-0546             
1 56048U 23043C   26157.61202689 -.00000146  00000+0 -41530-3 0  9998
2 56048  87.9104 230.8725 0002731 103.4424 256.7011 13.16593154157577
ONEWEB-0547             
1 56049U 23043D   26157.65062509  .00000115  00000+0  24730-3 0  9995
2 56049  87.9262 246.0695 0001832 103.0196 257.1143 13.21825538156830
ONEWEB-0548             
1 56050U 23043E   26157.63656002  .00000019  00000+0  15926-4 0  9993
2 56050  87.9099 230.8652 0002180  87.1498 272.9882 13.16595527157571
ONEWEB-0549             
1 56051U 23043F   26157.94752818  .00000060  00000+0  11396-3 0  9992
2 56051  87.9256 246.0179 0001922 110.8809 249.2531 13.21825090156870
ONEWEB-0550             
1 56052U 23043G   26157.93408206 -.00000056  00000+0 -16739-3 0  9994
2 56052  87.9257 246.0180 0002007  93.8424 266.2939 13.21825607156877
ONEWEB-0551             
1 56053U 23043H   26157.65932257  .00000356  00000+0  91073-3 0  9997
2 56053  87.8999 261.3239 0001772 109.4262 250.7060 13.15549997155013
ONEWEB-0552             
1 56054U 23043J   26157.62623821 -.00000054  00000+0 -16132-3 0  9999
2 56054  87.9252 246.0847 0001712  97.3114 262.8215 13.21828132156832
ONEWEB-0553             
1 56055U 23043K   26157.61835321 -.00000073  00000+0 -22509-3 0  9995
2 56055  87.9100 230.8728 0002447  99.3459 260.7949 13.16594062157584
ONEWEB-0554             
1 56056U 23043L   26157.60569212 -.00000044  00000+0 -14920-3 0  9994
2 56056  87.9105 230.8844 0002213  91.8867 268.2517 13.16594054157563
ONEWEB-0555             
1 56057U 23043M   26157.94766819  .00000086  00000+0  19223-3 0  9999
2 56057  87.9103 230.8044 0002654 102.1363 258.0066 13.16596056157616
ONEWEB-0557             
1 56058U 23043N   26157.65793145  .00000181  00000+0  43882-3 0  9994
2 56058  87.9110 230.8723 0003100  81.8928 278.2555 13.16594277157571
ONEWEB-0558             
1 56059U 23043P   26157.61950748 -.00000231  00000+0 -58965-3 0  9991
2 56059  87.9253 246.0807 0001899 109.1620 250.9719 13.21826380156845
ONEWEB-0559             
1 56060U 23043Q   26157.60772621 -.00000174  00000+0 -45390-3 0  9998
2 56060  87.9257 246.0783 0001725 104.9721 255.1604 13.21826740156858
ONEWEB-0566             
1 56061U 23043R   26157.52531590  .00000095  00000+0  19950-3 0  9991
2 56061  87.9259 246.0928 0001718 105.3391 254.7933 13.21826789156822
ONEWEB-0568             
1 56062U 23043S   26157.59935608  .00000076  00000+0  16564-3 0  9994
2 56062  87.9106 230.8740 0002286  99.3073 260.8317 13.16594721157587
ONEWEB-0574             
1 56063U 23043T   26157.66996891  .00000154  00000+0  34164-3 0  9997
2 56063  87.9275 246.0660 0002090  94.7369 265.4003 13.21827415156885
ONEWEB-0575             
1 56064U 23043U   26157.66902110  .00000038  00000+0  65465-4 0  9999
2 56064  87.9105 230.8562 0002394  92.1997 267.9408 13.16593970157580
ONEWEB-0576             
1 56065U 23043V   26157.65001429  .00000063  00000+0  13170-3 0  9995
2 56065  87.9104 230.8673 0002228  94.3797 265.7588 13.16593112157573
ONEWEB-0577             
1 56066U 23043W   26157.65635083  .00000105  00000+0  24057-3 0  9998
2 56066  87.9106 230.8637 0002514  82.2681 277.8736 13.16593219157603
