OBJECT_NAME,OBJECT_ID,EPOCH,MEAN_MOTION,ECCENTRICITY,INCLINATION,RA_OF_ASC_NODE,ARG_OF_PERICENTER,MEAN_ANOMALY,EPHEMERIS_TYPE,CLASSIFICATION_TYPE,NORAD_CAT_ID,ELEMENT_SET_NO,REV_AT_EPOCH,BSTAR,MEAN_MOTION_DOT,MEAN_MOTION_DDOT
ONEWEB-0667,2023-029AH,2026-06-06T13:45:25.350912,13.20772076,.000181,87.9194,276.5451,95.7680,264.3660,0,U,55827,999,15974,.18255E-3,.87E-6,0
ONEWEB-0669,2023-029AJ,2026-06-06T13:38:08.668032,13.20771523,.0002372,87.9185,276.5582,91.3155,268.8250,0,U,55828,999,15974,.14705E-3,.73E-6,0
ONEWEB-0670,2023-029AK,2026-06-06T15:09:57.949344,13.14501748,.0001768,87.8941,291.8464,85.3121,274.8211,0,U,55829,999,15804,-.73023E-3,-.258E-5,0
ONEWEB-0671,2023-029AL,2026-06-06T16:14:17.110752,13.19724459,.00017485,87.9163,307.0708,92.5804,267.5529,0,U,55830,999,15751,.42022858E-3,.181E-5,0
ONEWEB-0672,2023-029AM,2026-06-06T13:30:51.878016,13.20771860,.0002172,87.9187,276.5523,102.0313,258.1063,0,U,55831,999,15974,.19036E-3,.9E-6,0
ONEWEB-0673,2023-029AN,2026-06-06T15:41:19.864032,13.19726169,.00017418,87.9170,307.0660,92.4173,267.7159,0,U,55832,999,15751,.11333864E-3,.58E-6,0
ONEWEB-0674,2023-029AP,2026-06-06T14:24:18.006624,13.14503372,.0001856,87.8946,291.8295,85.9757,274.1585,0,U,55833,999,15802,.69811E-3,.272E-5,0
ONEWEB-0675,2023-029AQ,2026-06-06T10:35:24.164160,13.19724942,.00019431,87.9162,307.1186,105.9682,254.1665,0,U,55834,999,15750,-.36021864E-3,-.131E-5,0
ONEWEB-0720,2023-029AR,2026-06-06T15:51:32.945472,13.19724784,.00015212,87.9159,307.0751,97.1762,262.9543,0,U,55835,999,15745,.23459022E-3,.107E-5,0
ONEWEB-0537,2023-043A,2026-06-06T15:08:40.265376,13.16593505,.00022439,87.9099,230.8676,102.7923,257.3459,0,U,56046,999,15757,-.16031953E-4,.7E-7,0
ONEWEB-0538,2023-043B,2026-06-06T22:17:17.707488,13.16597862,.00020451,87.9104,230.8111,106.1892,253.9465,0,U,56047,999,15762,-.21743098E-2,-.818E-5,0
ONEWEB-0546,2023-043C,2026-06-06T14:41:19.123296,13.16593154,.00027319,87.9104,230.8725,103.4424,256.7011,0,U,56048,999,15757,-.41529689E-3,-.146E-5,0
ONEWEB-0547,2023-043D,2026-06-06T15:36:54.007776,13.21825538,.00018325,87.9262,246.0695,103.0196,257.1143,0,U,56049,999,15683,.24729672E-3,.115E-5,0
ONEWEB-0548,2023-043E,2026-06-06T15:16:38.785728,13.16595527,.00021804,87.9099,230.8652,87.1498,272.9882,0,U,56050,999,15757,.15925709E-4,.19E-6,0
ONEWEB-0549,2023-043F,2026-06-06T22:44:26.434752,13.21825090,.00019229,87.9256,246.0179,110.8809,249.2531,0,U,56051,999,15687,.11395938E-3,.6E-6,0
ONEWEB-0550,2023-043G,2026-06-06T22:25:04.689984,13.21825607,.00020077,87.9257,246.0180,93.8424,266.2939,0,U,56052,999,15687,-.16739276E-3,-.56E-6,0
ONEWEB-0551,2023-043H,2026-06-06T15:49:25.470048,13.15549997,.00017721,87.8999,261.3239,109.4262,250.7060,0,U,56053,999,15501,.91072621E-3,.356E-5,0
ONEWEB-0552,2023-043J,2026-06-06T15:01:46.981344,13.21828132,.00017129,87.9252,246.0847,97.3114,262.8215,0,U,56054,999,15683,-.16132461E-3,-.54E-6,0
ONEWEB-0553,2023-043K,2026-06-06T14:50:25.717344,13.16594062,.00024473,87.9100,230.8728,99.3459,260.7949,0,U,56055,999,15758,-.22509034E-3,-.73E-6,0
ONEWEB-0554,2023-043L,2026-06-06T14:32:11.799168,13.16594054,.0002213,87.9105,230.8844,91.8867,268.2517,0,U,56056,999,15756,-.14920205E-3,-.44E-6,0
ONEWEB-0555,2023-043M,2026-06-06T22:44:38.531616,13.16596056,.00026544,87.9103,230.8044,102.1363,258.0066,0,U,56057,999,15761,.19222592E-3,.86E-6,0
ONEWEB-0557,2023-043N,2026-06-06T15:47:25.277280,13.16594277,.00031008,87.9110,230.8723,81.8928,278.2555,0,U,56058,999,15757,.43881658E-3,.181E-5,0
ONEWEB-0558,2023-043P,2026-06-06T14:52:05.446272,13.21826380,.00018998,87.9253,246.0807,109.1620,250.9719,0,U,56059,999,15684,-.58964912E-3,-.231E-5,0
ONEWEB-0559,2023-043Q,2026-06-06T14:35:07.544544,13.21826740,.00017253,87.9257,246.0783,104.9721,255.1604,0,U,56060,999,15685,-.45390455E-3,-.174E-5,0
ONEWEB-0566,2023-043R,2026-06-06T12:36:27.293760,13.21826789,.00017184,87.9259,246.0928,105.3391,254.7933,0,U,56061,999,15682,.19949564E-3,.95E-6,0
ONEWEB-0568,2023-043S,2026-06-06T14:23:04.365312,13.16594721,.00022863,87.9106,230.8740,99.3073,260.8317,0,U,56062,999,15758,.165644E-3,.76E-6,0
ONEWEB-0574,2023-043T,2026-06-06T16:04:45.313824,13.21827415,.00020905,87.9275,246.0660,94.7369,265.4003,0,U,56063,999,15688,.34164183E-3,.154E-5,0
ONEWEB-0575,2023-043U,2026-06-06T16:03:23.423040,13.16593970,.00023945,87.9105,230.8562,92.1997,267.9408,0,U,56064,999,15758,.65465138E-4,.38E-6,0
ONEWEB-0576,2023-043V,2026-06-06T15:36:01.234656,13.16593112,.00022288,87.9104,230.8673,94.3797,265.7588,0,U,56065,999,15757,.13169658E-3,.63E-6,0
ONEWEB-0577,2023-043W,2026-06-06T15:45:08.711712,13.16593219,.00025143,87.9106,230.8637,82.2681,277.8736,0,U,56066,999,15760,.24057182E-3,.105E-5,0
